{
  "type": "FeatureCollection",
  "features": [
    {
      "type": "Feature",
      "properties": {
        "norad_id": 41384,
        "name": "IRNSS-1F",
        "group": "gnss",
        "lat": -3.3224770725273425,
        "lon": 58.022154791660604,
        "alt_km": 35856.25786821502,
        "timestamp": "2025-12-06T20:37:56.313067+00:00",
        "meta_object_name": "IRNSS-1F",
        "meta_object_id": "2016-015A",
        "meta_epoch": "2025-12-06T13:49:11.191872",
        "meta_mean_motion": 1.00269273,
        "meta_eccentricity": 0.00224242,
        "meta_inclination": 4.865,
        "meta_ra_of_asc_node": 101.4524,
        "meta_arg_of_pericenter": 179.8688,
        "meta_mean_anomaly": 33.9594,
        "meta_ephemeris_type": 0,
        "meta_classification_type": "U",
        "meta_norad_cat_id": 41384,
        "meta_element_set_no": 999,
        "meta_rev_at_epoch": 3573,
        "meta_bstar": 0,
        "meta_mean_motion_dot": 1.63e-06,
        "meta_mean_motion_ddot": 0,
        "tle_line1": "1 41384U 16015A   25340.57582398  .00000163  00000+0  00000+0 0  9992",
        "tle_line2": "2 41384   4.8650 101.4524 0022424 179.8688  33.9594  1.00269273 35734"
      },
      "geometry": {
        "type": "Point",
        "coordinates": [
          58.022154791660604,
          -3.3224770725273425
        ]
      }
    },
    {
      "type": "Feature",
      "properties": {
        "norad_id": 41434,
        "name": "BEIDOU-2 IGSO-6 (C13)",
        "group": "gnss",
        "lat": 57.40983422920869,
        "lon": 104.68414042929845,
        "alt_km": 36010.70873459532,
        "timestamp": "2025-12-06T20:37:56.313079+00:00",
        "meta_object_name": "BEIDOU-2 IGSO-6 (C13)",
        "meta_object_id": "2016-021A",
        "meta_epoch": "2025-12-01T15:57:35.287200",
        "meta_mean_motion": 1.00256562,
        "meta_eccentricity": 0.00591323,
        "meta_inclination": 59.9483,
        "meta_ra_of_asc_node": 40.0119,
        "meta_arg_of_pericenter": 231.2834,
        "meta_mean_anomaly": 130.8807,
        "meta_ephemeris_type": 0,
        "meta_classification_type": "U",
        "meta_norad_cat_id": 41434,
        "meta_element_set_no": 999,
        "meta_rev_at_epoch": 3550,
        "meta_bstar": 0,
        "meta_mean_motion_dot": -1.55e-06,
        "meta_mean_motion_ddot": 0,
        "tle_line1": "1 41434U 16021A   25335.66499175 -.00000155  00000+0  00000+0 0  9991",
        "tle_line2": "2 41434  59.9483  40.0119 0059132 231.2834 130.8807  1.00256562 35501"
      },
      "geometry": {
        "type": "Point",
        "coordinates": [
          104.68414042929845,
          57.40983422920869
        ]
      }
    },
    {
      "type": "Feature",
      "properties": {
        "norad_id": 41469,
        "name": "IRNSS-1G",
        "group": "gnss",
        "lat": 3.751614383869838,
        "lon": 154.74984317926626,
        "alt_km": 35786.122157992206,
        "timestamp": "2025-12-06T20:37:56.313093+00:00",
        "meta_object_name": "IRNSS-1G",
        "meta_object_id": "2016-027A",
        "meta_epoch": "2025-12-06T09:30:51.801696",
        "meta_mean_motion": 1.002524,
        "meta_eccentricity": 0.00046445,
        "meta_inclination": 4.7172,
        "meta_ra_of_asc_node": 102.2625,
        "meta_arg_of_pericenter": 337.221,
        "meta_mean_anomaly": 268.1179,
        "meta_ephemeris_type": 0,
        "meta_classification_type": "U",
        "meta_norad_cat_id": 41469,
        "meta_element_set_no": 999,
        "meta_rev_at_epoch": 3524,
        "meta_bstar": 0,
        "meta_mean_motion_dot": -3.31e-06,
        "meta_mean_motion_ddot": 0,
        "tle_line1": "1 41469U 16027A   25340.39643289 -.00000331  00000+0  00000+0 0  9994",
        "tle_line2": "2 41469   4.7172 102.2625 0004644 337.2210 268.1179  1.00252400 35243"
      },
      "geometry": {
        "type": "Point",
        "coordinates": [
          154.74984317926626,
          3.751614383869838
        ]
      }
    },
    {
      "type": "Feature",
      "properties": {
        "norad_id": 41549,
        "name": "GSAT0211 (GALILEO 14)",
        "group": "gnss",
        "lat": -52.79971463455701,
        "lon": 160.529081554714,
        "alt_km": 23227.849363900415,
        "timestamp": "2025-12-06T20:37:56.313104+00:00",
        "meta_object_name": "GSAT0211 (GALILEO 14)",
        "meta_object_id": "2016-030A",
        "meta_epoch": "2025-12-05T19:26:55.320000",
        "meta_mean_motion": 1.70472946,
        "meta_eccentricity": 0.00039556,
        "meta_inclination": 55.1547,
        "meta_ra_of_asc_node": 227.0144,
        "meta_arg_of_pericenter": 12.8849,
        "meta_mean_anomaly": 347.2228,
        "meta_ephemeris_type": 0,
        "meta_classification_type": "U",
        "meta_norad_cat_id": 41549,
        "meta_element_set_no": 999,
        "meta_rev_at_epoch": 5937,
        "meta_bstar": 0,
        "meta_mean_motion_dot": 3.5e-07,
        "meta_mean_motion_ddot": 0,
        "tle_line1": "1 41549U 16030A   25339.81036250  .00000035  00000+0  00000+0 0  9996",
        "tle_line2": "2 41549  55.1547 227.0144 0003955  12.8849 347.2228  1.70472946 59378"
      },
      "geometry": {
        "type": "Point",
        "coordinates": [
          160.529081554714,
          -52.79971463455701
        ]
      }
    },
    {
      "type": "Feature",
      "properties": {
        "norad_id": 41550,
        "name": "GSAT0210 (GALILEO 13)",
        "group": "gnss",
        "lat": 41.59670366345767,
        "lon": 8.836686776952375,
        "alt_km": 23219.19739570415,
        "timestamp": "2025-12-06T20:37:56.313116+00:00",
        "meta_object_name": "GSAT0210 (GALILEO 13)",
        "meta_object_id": "2016-030B",
        "meta_epoch": "2025-12-04T07:23:32.472672",
        "meta_mean_motion": 1.70473512,
        "meta_eccentricity": 0.0001419,
        "meta_inclination": 55.1546,
        "meta_ra_of_asc_node": 227.0538,
        "meta_arg_of_pericenter": 244.2228,
        "meta_mean_anomaly": 115.8568,
        "meta_ephemeris_type": 0,
        "meta_classification_type": "U",
        "meta_norad_cat_id": 41550,
        "meta_element_set_no": 999,
        "meta_rev_at_epoch": 5934,
        "meta_bstar": 0,
        "meta_mean_motion_dot": 4e-07,
        "meta_mean_motion_ddot": 0,
        "tle_line1": "1 41550U 16030B   25338.30801473  .00000040  00000+0  00000+0 0  9994",
        "tle_line2": "2 41550  55.1546 227.0538 0001419 244.2228 115.8568  1.70473512 59344"
      },
      "geometry": {
        "type": "Point",
        "coordinates": [
          8.836686776952375,
          41.59670366345767
        ]
      }
    },
    {
      "type": "Feature",
      "properties": {
        "norad_id": 41586,
        "name": "BEIDOU-2 G7 (C03)",
        "group": "gnss",
        "lat": 1.6270443739502347,
        "lon": 135.8889387472274,
        "alt_km": 35779.01696768541,
        "timestamp": "2025-12-06T20:37:56.313128+00:00",
        "meta_object_name": "BEIDOU-2 G7 (C03)",
        "meta_object_id": "2016-037A",
        "meta_epoch": "2025-12-06T12:28:41.400768",
        "meta_mean_motion": 1.00270086,
        "meta_eccentricity": 0.00043751,
        "meta_inclination": 1.7412,
        "meta_ra_of_asc_node": 67.7316,
        "meta_arg_of_pericenter": 1.5262,
        "meta_mean_anomaly": 303.9569,
        "meta_ephemeris_type": 0,
        "meta_classification_type": "U",
        "meta_norad_cat_id": 41586,
        "meta_element_set_no": 999,
        "meta_rev_at_epoch": 495,
        "meta_bstar": 0,
        "meta_mean_motion_dot": -3.47e-06,
        "meta_mean_motion_ddot": 0,
        "tle_line1": "1 41586U 16037A   25340.51992362 -.00000347  00000+0  00000+0 0  9995",
        "tle_line2": "2 41586   1.7412  67.7316 0004375   1.5262 303.9569  1.00270086  4953"
      },
      "geometry": {
        "type": "Point",
        "coordinates": [
          135.8889387472274,
          1.6270443739502347
        ]
      }
    },
    {
      "type": "Feature",
      "properties": {
        "norad_id": 41589,
        "name": "EUTELSAT 117 WEST B (WAAS/PRN 131)",
        "group": "gnss",
        "lat": 0.010711545245536053,
        "lon": -91.63257050432895,
        "alt_km": 35786.62088570078,
        "timestamp": "2025-12-06T20:37:56.313139+00:00",
        "meta_object_name": "EUTELSAT 117 WEST B (WAAS/PRN 131)",
        "meta_object_id": "2016-038B",
        "meta_epoch": "2025-12-06T11:23:47.617152",
        "meta_mean_motion": 1.00272504,
        "meta_eccentricity": 1.795e-05,
        "meta_inclination": 0.0132,
        "meta_ra_of_asc_node": 172.9606,
        "meta_arg_of_pericenter": 270.2421,
        "meta_mean_anomaly": 46.2587,
        "meta_ephemeris_type": 0,
        "meta_classification_type": "U",
        "meta_norad_cat_id": 41589,
        "meta_element_set_no": 999,
        "meta_rev_at_epoch": 3473,
        "meta_bstar": 0,
        "meta_mean_motion_dot": -5e-08,
        "meta_mean_motion_ddot": 0,
        "tle_line1": "1 41589U 16038B   25340.47485668 -.00000005  00000+0  00000+0 0  9991",
        "tle_line2": "2 41589   0.0132 172.9606 0000179 270.2421  46.2587  1.00272504 34731"
      },
      "geometry": {
        "type": "Point",
        "coordinates": [
          -91.63257050432895,
          0.010711545245536053
        ]
      }
    }
  ]
}